[{"OBJECT_NAME":"VSP ROSE","OBJECT_ID":"2024-043AC","EPOCH":"2026-03-09T21:48:06.922944","MEAN_MOTION":15.27746075,"ECCENTRICITY":0.00099339,"INCLINATION":97.5443,"RA_OF_ASC_NODE":203.927,"ARG_OF_PERICENTER":232.2702,"MEAN_ANOMALY":127.7637,"EPHEMERIS_TYPE":0,"CLASSIFICATION_TYPE":"U","NORAD_CAT_ID":59124,"ELEMENT_SET_NO":999,"REV_AT_EPOCH":11182,"BSTAR":0.00025731354,"MEAN_MOTION_DOT":6.907e-5,"MEAN_MOTION_DDOT":0},{"OBJECT_NAME":"STARLINK-36410","OBJECT_ID":"2026-003D","EPOCH":"2026-03-09T10:56:13.321536","MEAN_MOTION":15.27594916,"ECCENTRICITY":9.594e-5,"INCLINATION":42.9974,"RA_OF_ASC_NODE":228.7734,"ARG_OF_PERICENTER":278.7996,"MEAN_ANOMALY":81.2747,"EPHEMERIS_TYPE":0,"CLASSIFICATION_TYPE":"U","NORAD_CAT_ID":67337,"ELEMENT_SET_NO":999,"REV_AT_EPOCH":878,"BSTAR":0.0013428845,"MEAN_MOTION_DOT":0.00036893,"MEAN_MOTION_DDOT":0}]
